     2.10           NAVIGATION DATA                         RINEX VERSION / TYPE
SPIDER V4,0,0,3554                      2015 03 12 00:08    PGM / RUN BY / DATE 
   2.0489D-08  0.0000D+00 -1.1921D-07  5.9605D-08           ION ALPHA           
   1.2288D+05 -1.6384D+04 -2.6214D+05  6.5536D+04           ION BETA            
   -1.862645149231D-09-8.881784197001D-16   589824     1834 DELTA-UTC: A0,A1,T,W
    16                                                      LEAP SECONDS        
                                                            END OF HEADER       
16 15 03 06 00 00  0.0-1.507475972176D-04 3.410605131648D-12 0.000000000000D+00
    5.200000000000D+01 8.000000000000D+01 3.837659967587D-09 1.638323326263D+00
    4.474073648453D-06 8.146402309649D-03 1.081824302673D-05 5.153764316559D+03
    4.320000000000D+05 2.793967723846D-08-2.462497251020D+00 1.769512891769D-07
    9.900516866210D-01 1.865312500000D+02 2.470942527874D-01-7.766037590784D-09
    2.817974464886D-10 1.000000000000D+00 1.834000000000D+03 0.000000000000D+00
    2.000000000000D+00 0.000000000000D+00-1.024454832077D-08 5.200000000000D+01
    4.320000000000D+05 0.000000000000D+00
21 15 03 06 00 00  0.0-4.233215004206D-04-3.979039320257D-12 0.000000000000D+00
    1.800000000000D+01-1.026562500000D+02 4.771270045723D-09-3.043124382300D+00
   -5.405396223068D-06 2.233238599729D-02 9.419396519661D-06 5.153612596512D+03
    4.320000000000D+05 2.812594175339D-07-4.452905506988D-01-1.825392246246D-07
    9.338524056268D-01 1.779375000000D+02-1.938780703690D+00-7.918901090420D-09
   -4.271606401929D-10 1.000000000000D+00 1.834000000000D+03 0.000000000000D+00
    2.000000000000D+00 0.000000000000D+00-1.164153218269D-08 1.800000000000D+01
    4.320000000000D+05 0.000000000000D+00
29 15 03 06 00 00  0.0 5.959812551737D-04 2.387423592154D-12 0.000000000000D+00
    1.000000000000D+02-5.000000000000D-01 4.654479468513D-09-2.715624027910D+00
   -1.322478055954D-07 1.328753191046D-03 2.516433596611D-06 5.153541343689D+03
    4.320000000000D+05-3.166496753693D-08-1.425186009015D+00-3.725290298462D-09
    9.720054890730D-01 3.363437500000D+02-8.227524043344D-01-8.343919333242D-09
   -1.060758494931D-10 1.000000000000D+00 1.834000000000D+03 0.000000000000D+00
    2.800000000000D+00 0.000000000000D+00-9.778887033463D-09 1.000000000000D+02
    4.320000000000D+05 0.000000000000D+00
31 15 03 06 00 00  0.0 3.218478523195D-04-9.094947017729D-13 0.000000000000D+00
    6.500000000000D+01-6.034375000000D+01 4.225176208905D-09-2.166110074493D+00
   -3.051012754440D-06 8.246744982898D-03 1.091696321964D-05 5.153743307114D+03
    4.320000000000D+05-2.030283212662D-07 2.742763294140D+00 1.676380634308D-08
    9.760925223086D-01 1.795625000000D+02-5.364832432290D-01-7.799610735049D-09
   -4.739483250304D-10 1.000000000000D+00 1.834000000000D+03 0.000000000000D+00
    2.000000000000D+00 0.000000000000D+00-1.350417733192D-08 6.500000000000D+01
    4.320000000000D+05 0.000000000000D+00
27 15 03 05 23 59 44.0 5.585048347712D-05 2.614797267597D-12 0.000000000000D+00
    2.000000000000D+00 1.287500000000D+01 4.905561290514D-09 8.137831936107D-01
    7.487833499908D-07 2.094134571962D-03 2.168118953705D-06 5.153682909012D+03
    4.319840000000D+05 3.725290298462D-09-1.481778042552D+00-1.862645149231D-09
    9.660461884099D-01 3.354375000000D+02 1.337793920601D-01-8.529640993515D-09
   -6.321691781164D-11 1.000000000000D+00 1.834000000000D+03 0.000000000000D+00
    2.000000000000D+00 0.000000000000D+00 1.862645149231D-09 2.000000000000D+00
    4.319840000000D+05 0.000000000000D+00
18 15 03 06 00 00  0.0 3.841766156256D-04 2.728484105319D-12 0.000000000000D+00
    9.400000000000D+01 5.143750000000D+01 4.971635547690D-09 2.206787914626D+00
    2.603977918625D-06 1.580209168606D-02 1.129694283009D-05 5.153768802643D+03
    4.320000000000D+05 1.098960638046D-07 5.979080500474D-01-3.147870302200D-07
    9.255544460863D-01 1.391875000000D+02-1.985945704827D+00-8.075335955482D-09
    5.421654236670D-10 1.000000000000D+00 1.834000000000D+03 0.000000000000D+00
    2.000000000000D+00 0.000000000000D+00-1.117587089539D-08 9.400000000000D+01
    4.320000000000D+05 0.000000000000D+00
29 15 03 05 23 59 44.0 5.959775298834D-04 2.273736754432D-12 0.000000000000D+00
    2.200000000000D+01-5.000000000000D-01 4.654122420789D-09-2.717958097613D+00
   -1.322478055954D-07 1.328752725385D-03 2.516433596611D-06 5.153541358948D+03
    4.319840000000D+05-3.166496753693D-08-1.425185878815D+00-3.725290298462D-09
    9.720054583517D-01 3.363437500000D+02-8.227522829122D-01-8.343919333242D-09
   -1.060758494931D-10 1.000000000000D+00 1.834000000000D+03 0.000000000000D+00
    2.000000000000D+00 0.000000000000D+00-9.778887033463D-09 2.200000000000D+01
    4.319840000000D+05 0.000000000000D+00
22 15 03 06 00 00  0.0 3.253100439906D-04 4.320099833421D-12 0.000000000000D+00
    1.700000000000D+01 5.465625000000D+01 5.182001494575D-09 1.740752898831D+00
    2.838671207428D-06 7.560676080175D-03 1.120381057262D-05 5.153704317093D+03
    4.320000000000D+05-1.396983861923D-07 5.992372047491D-01-1.173466444016D-07
    9.233574956945D-01 1.424062500000D+02-2.065029856600D+00-8.374991367077D-09
    5.000208025407D-10 1.000000000000D+00 1.834000000000D+03 0.000000000000D+00
    2.000000000000D+00 0.000000000000D+00-1.769512891769D-08 1.700000000000D+01
    4.320000000000D+05 0.000000000000D+00
19 15 03 06 00 00  0.0-5.028853192925D-04-1.364242052659D-12 0.000000000000D+00
    6.700000000000D+01-4.406250000000D+00 4.901632877363D-09-8.065040599599D-02
   -2.104789018631D-07 1.102404529229D-02 2.300366759300D-06 5.153695629120D+03
    4.320000000000D+05 5.215406417847D-08-1.384558089499D+00 1.341104507446D-07
    9.682699145913D-01 3.348437500000D+02 5.207785879700D-01-8.652860650216D-09
   -1.578637220945D-10 1.000000000000D+00 1.834000000000D+03 0.000000000000D+00
    2.000000000000D+00 0.000000000000D+00-1.490116119385D-08 6.700000000000D+01
    4.320000000000D+05 0.000000000000D+00
